start=new Date('2022-09-10T00:00:00.000Z').valueOf();
sats=[{"DECAY_DATE":null,"MEAN_ELEMENT_THEORY":"SGP4","MEAN_MOTION":"15.73183098","TIME_SYSTEM":"UTC","RCS_SIZE":null,"RA_OF_ASC_NODE":"224.6751","ARG_OF_PERICENTER":"82.0993","TLE_LINE2":"2 53628  53.2159 224.6751 0001333  82.0993 133.9676 15.73183098  1303","PERIOD":"91.534","TLE_LINE1":"1 53628U 22104AS  22252.91667824 -.00021460  00000-0 -14898-3 0  9997","NORAD_CAT_ID":"53628","MEAN_MOTION_DOT":"-0.00021460","REV_AT_EPOCH":"130","SEMIMAJOR_AXIS":"6727.943","APOAPSIS":"350.705","BSTAR":"-0.00014898000000","ELEMENT_SET_NO":"999","OBJECT_NAME":"STARLINK-4600","OBJECT_TYPE":"PAYLOAD","COUNTRY_CODE":"US","ECCENTRICITY":"0.00013330","MEAN_MOTION_DDOT":"0.0000000000000","GP_ID":"212170281","MEAN_ANOMALY":"133.9676","FILE":"3565505","CENTER_NAME":"EARTH","SITE":"AFETR","REF_FRAME":"TEME","EPHEMERIS_TYPE":"0","LAUNCH_DATE":"2022-08-28","INCLINATION":"53.2159","OBJECT_ID":"2022-104AS","EPOCH":"2022-09-09T22:00:00.999936","CLASSIFICATION_TYPE":"U","PERIAPSIS":"348.912"},{"MEAN_ANOMALY":"137.5627","CENTER_NAME":"EARTH","FILE":"3565505","ECCENTRICITY":"0.00009640","COUNTRY_CODE":"US","MEAN_MOTION_DDOT":"0.0000000000000","GP_ID":"212170127","EPOCH":"2022-09-09T22:00:00.999936","CLASSIFICATION_TYPE":"U","PERIAPSIS":"348.875","SITE":"AFETR","REF_FRAME":"TEME","LAUNCH_DATE":"2022-08-28","EPHEMERIS_TYPE":"0","INCLINATION":"53.2157","OBJECT_ID":"2022-104AT","TLE_LINE1":"1 53629U 22104AT  22252.91667824 -.00002414  00000-0 -12739-4 0  9999","TLE_LINE2":"2 53629  53.2157 224.6780 0000964  76.5768 137.5627 15.73282872  1307","PERIOD":"91.528","MEAN_MOTION_DOT":"-0.00002414","NORAD_CAT_ID":"53629","SEMIMAJOR_AXIS":"6727.659","REV_AT_EPOCH":"130","DECAY_DATE":null,"MEAN_ELEMENT_THEORY":"SGP4","MEAN_MOTION":"15.73282872","TIME_SYSTEM":"UTC","ARG_OF_PERICENTER":"76.5768","RCS_SIZE":null,"RA_OF_ASC_NODE":"224.6780","ELEMENT_SET_NO":"999","BSTAR":"-0.00001273900000","OBJECT_NAME":"STARLINK-4602","OBJECT_TYPE":"PAYLOAD","APOAPSIS":"350.172"},{"MEAN_MOTION_DDOT":"0.0000000000000","COUNTRY_CODE":"US","ECCENTRICITY":"0.00011690","GP_ID":"212170625","MEAN_ANOMALY":"130.4583","CENTER_NAME":"EARTH","FILE":"3565505","LAUNCH_DATE":"2022-08-28","INCLINATION":"53.2158","EPHEMERIS_TYPE":"0","SITE":"AFETR","REF_FRAME":"TEME","OBJECT_ID":"2022-104AU","EPOCH":"2022-09-09T22:00:00.999936","PERIAPSIS":"348.672","CLASSIFICATION_TYPE":"U","MEAN_MOTION":"15.73305812","MEAN_ELEMENT_THEORY":"SGP4","DECAY_DATE":null,"RA_OF_ASC_NODE":"224.6734","RCS_SIZE":null,"ARG_OF_PERICENTER":"86.0741","TIME_SYSTEM":"UTC","PERIOD":"91.527","TLE_LINE2":"2 53630  53.2158 224.6734 0001169  86.0741 130.4583 15.73305812  1307","TLE_LINE1":"1 53630U 22104AU  22252.91667824 -.00069263  00000-0 -49092-3 0  9997","SEMIMAJOR_AXIS":"6727.594","REV_AT_EPOCH":"130","NORAD_CAT_ID":"53630","MEAN_MOTION_DOT":"-0.00069263","APOAPSIS":"350.245","ELEMENT_SET_NO":"999","BSTAR":"-0.00049092000000","OBJECT_TYPE":"PAYLOAD","OBJECT_NAME":"STARLINK-4598"},{"NORAD_CAT_ID":"53631","MEAN_MOTION_DOT":"-0.00088105","SEMIMAJOR_AXIS":"6727.528","REV_AT_EPOCH":"130","TLE_LINE2":"2 53631  53.2155 224.6753 0001012  86.4128 128.8791 15.73328800  1300","PERIOD":"91.526","TLE_LINE1":"1 53631U 22104AV  22252.91667824 -.00088105  00000-0 -62647-3 0  9995","TIME_SYSTEM":"UTC","RCS_SIZE":null,"RA_OF_ASC_NODE":"224.6753","ARG_OF_PERICENTER":"86.4128","MEAN_ELEMENT_THEORY":"SGP4","DECAY_DATE":null,"MEAN_MOTION":"15.73328800","OBJECT_NAME":"STARLINK-4599","OBJECT_TYPE":"PAYLOAD","BSTAR":"-0.00062647000000","ELEMENT_SET_NO":"999","APOAPSIS":"350.074","FILE":"3565505","CENTER_NAME":"EARTH","MEAN_ANOMALY":"128.8791","GP_ID":"212169560","COUNTRY_CODE":"US","ECCENTRICITY":"0.00010120","MEAN_MOTION_DDOT":"0.0000000000000","CLASSIFICATION_TYPE":"U","PERIAPSIS":"348.712","EPOCH":"2022-09-09T22:00:00.999936","OBJECT_ID":"2022-104AV","SITE":"AFETR","REF_FRAME":"TEME","LAUNCH_DATE":"2022-08-28","EPHEMERIS_TYPE":"0","INCLINATION":"53.2155"},{"PERIOD":"91.533","TLE_LINE2":"2 53632  53.2157 224.6712 0001086  80.0139 137.8161 15.73201648  1302","TLE_LINE1":"1 53632U 22104AW  22252.91667824 -.00007594  00000-0 -49741-4 0  9990","NORAD_CAT_ID":"53632","MEAN_MOTION_DOT":"-0.00007594","SEMIMAJOR_AXIS":"6727.890","REV_AT_EPOCH":"130","DECAY_DATE":null,"MEAN_ELEMENT_THEORY":"SGP4","MEAN_MOTION":"15.73201648","TIME_SYSTEM":"UTC","RCS_SIZE":null,"RA_OF_ASC_NODE":"224.6712","ARG_OF_PERICENTER":"80.0139","BSTAR":"-0.00004974100000","ELEMENT_SET_NO":"999","OBJECT_NAME":"STARLINK-4606","OBJECT_TYPE":"PAYLOAD","APOAPSIS":"350.486","MEAN_ANOMALY":"137.8161","FILE":"3565505","CENTER_NAME":"EARTH","COUNTRY_CODE":"US","ECCENTRICITY":"0.00010860","MEAN_MOTION_DDOT":"0.0000000000000","GP_ID":"212170475","EPOCH":"2022-09-09T22:00:00.999936","CLASSIFICATION_TYPE":"U","PERIAPSIS":"349.025","SITE":"AFETR","REF_FRAME":"TEME","EPHEMERIS_TYPE":"0","LAUNCH_DATE":"2022-08-28","INCLINATION":"53.2157","OBJECT_ID":"2022-104AW"},{"MEAN_MOTION":"15.73218972","DECAY_DATE":null,"MEAN_ELEMENT_THEORY":"SGP4","ARG_OF_PERICENTER":"81.7509","RA_OF_ASC_NODE":"224.6716","RCS_SIZE":null,"TIME_SYSTEM":"UTC","TLE_LINE1":"1 53633U 22104AX  22252.91667824  .00012190  00000-0  91068-4 0  9996","TLE_LINE2":"2 53633  53.2157 224.6716 0001159  81.7509 135.4770 15.73218972  1305","PERIOD":"91.532","REV_AT_EPOCH":"130","SEMIMAJOR_AXIS":"6727.841","MEAN_MOTION_DOT":"0.00012190","NORAD_CAT_ID":"53633","APOAPSIS":"350.486","BSTAR":"0.00009106800000","ELEMENT_SET_NO":"999","OBJECT_TYPE":"PAYLOAD","OBJECT_NAME":"STARLINK-4593","MEAN_MOTION_DDOT":"0.0000000000000","ECCENTRICITY":"0.00011590","COUNTRY_CODE":"US","GP_ID":"212169712","MEAN_ANOMALY":"135.4770","CENTER_NAME":"EARTH","FILE":"3565505","LAUNCH_DATE":"2022-08-28","EPHEMERIS_TYPE":"0","INCLINATION":"53.2157","SITE":"AFETR","REF_FRAME":"TEME","OBJECT_ID":"2022-104AX","EPOCH":"2022-09-09T22:00:00.999936","PERIAPSIS":"348.926","CLASSIFICATION_TYPE":"U"},{"REF_FRAME":"TEME","SITE":"AFETR","LAUNCH_DATE":"2022-08-28","INCLINATION":"53.2155","EPHEMERIS_TYPE":"0","OBJECT_ID":"2022-104AY","EPOCH":"2022-09-09T22:00:00.999936","CLASSIFICATION_TYPE":"U","PERIAPSIS":"349.077","ECCENTRICITY":"0.00010140","COUNTRY_CODE":"US","MEAN_MOTION_DDOT":"0.0000000000000","GP_ID":"212170431","MEAN_ANOMALY":"141.8122","CENTER_NAME":"EARTH","FILE":"3565505","APOAPSIS":"350.442","BSTAR":"0.00017859000000","ELEMENT_SET_NO":"999","OBJECT_NAME":"STARLINK-4592","OBJECT_TYPE":"PAYLOAD","MEAN_ELEMENT_THEORY":"SGP4","DECAY_DATE":null,"MEAN_MOTION":"15.73200206","TIME_SYSTEM":"UTC","ARG_OF_PERICENTER":"77.2123","RA_OF_ASC_NODE":"224.6675","RCS_SIZE":null,"TLE_LINE1":"1 53634U 22104AY  22252.91667824  .00024517  00000-0  17859-3 0  9998","PERIOD":"91.533","TLE_LINE2":"2 53634  53.2155 224.6675 0001014  77.2123 141.8122 15.73200206  1303","MEAN_MOTION_DOT":"0.00024517","NORAD_CAT_ID":"53634","REV_AT_EPOCH":"130","SEMIMAJOR_AXIS":"6727.895"},{"MEAN_ANOMALY":"135.0757","FILE":"3565505","CENTER_NAME":"EARTH","MEAN_MOTION_DDOT":"0.0000000000000","COUNTRY_CODE":"US","ECCENTRICITY":"0.00012350","GP_ID":"212169975","EPOCH":"2022-09-09T22:00:00.999936","PERIAPSIS":"348.785","CLASSIFICATION_TYPE":"U","LAUNCH_DATE":"2022-08-28","EPHEMERIS_TYPE":"0","INCLINATION":"53.2150","SITE":"AFETR","REF_FRAME":"TEME","OBJECT_ID":"2022-104AZ","TLE_LINE2":"2 53635  53.2150 224.6673 0001235  83.3609 135.0757 15.73250494  1302","PERIOD":"91.530","TLE_LINE1":"1 53635U 22104AZ  22252.91667824 -.00028693  00000-0 -20028-3 0  9992","REV_AT_EPOCH":"130","SEMIMAJOR_AXIS":"6727.751","NORAD_CAT_ID":"53635","MEAN_MOTION_DOT":"-0.00028693","MEAN_MOTION":"15.73250494","DECAY_DATE":null,"MEAN_ELEMENT_THEORY":"SGP4","RCS_SIZE":null,"RA_OF_ASC_NODE":"224.6673","ARG_OF_PERICENTER":"83.3609","TIME_SYSTEM":"UTC","BSTAR":"-0.00020028000000","ELEMENT_SET_NO":"999","OBJECT_TYPE":"PAYLOAD","OBJECT_NAME":"STARLINK-4587","APOAPSIS":"350.447"},{"FILE":"3565505","CENTER_NAME":"EARTH","MEAN_ANOMALY":"144.5605","GP_ID":"212170282","MEAN_MOTION_DDOT":"0.0000000000000","ECCENTRICITY":"0.00011740","COUNTRY_CODE":"US","PERIAPSIS":"348.998","CLASSIFICATION_TYPE":"U","EPOCH":"2022-09-09T22:00:00.999936","OBJECT_ID":"2022-104BA","LAUNCH_DATE":"2022-08-28","INCLINATION":"53.2157","EPHEMERIS_TYPE":"0","REF_FRAME":"TEME","SITE":"AFETR","SEMIMAJOR_AXIS":"6727.922","REV_AT_EPOCH":"130","MEAN_MOTION_DOT":"0.00001865","NORAD_CAT_ID":"53636","TLE_LINE1":"1 53636U 22104BA  22252.91667824  .00001865  00000-0  17707-4 0  9994","TLE_LINE2":"2 53636  53.2157 224.6660 0001174  75.6552 144.5605 15.73190460  1302","PERIOD":"91.534","ARG_OF_PERICENTER":"75.6552","RCS_SIZE":null,"RA_OF_ASC_NODE":"224.6660","TIME_SYSTEM":"UTC","MEAN_MOTION":"15.73190460","DECAY_DATE":null,"MEAN_ELEMENT_THEORY":"SGP4","OBJECT_TYPE":"PAYLOAD","OBJECT_NAME":"STARLINK-4586","BSTAR":"0.00001770700000","ELEMENT_SET_NO":"999","APOAPSIS":"350.577"},{"INCLINATION":"53.2159","LAUNCH_DATE":"2022-08-28","EPHEMERIS_TYPE":"0","REF_FRAME":"TEME","SITE":"AFETR","OBJECT_ID":"2022-104BB","EPOCH":"2022-09-09T22:00:00.999936","PERIAPSIS":"348.371","CLASSIFICATION_TYPE":"U","MEAN_MOTION_DDOT":"0.0000000000000","ECCENTRICITY":"0.00016560","COUNTRY_CODE":"US","GP_ID":"212170128","MEAN_ANOMALY":"134.4510","CENTER_NAME":"EARTH","FILE":"3565505","APOAPSIS":"350.599","BSTAR":"-0.00007906300000","ELEMENT_SET_NO":"999","OBJECT_TYPE":"PAYLOAD","OBJECT_NAME":"STARLINK-4396","MEAN_MOTION":"15.73296397","DECAY_DATE":null,"MEAN_ELEMENT_THEORY":"SGP4","ARG_OF_PERICENTER":"84.9110","RCS_SIZE":null,"RA_OF_ASC_NODE":"224.6683","TIME_SYSTEM":"UTC","TLE_LINE1":"1 53637U 22104BB  22252.91667824 -.00011748  00000-0 -79063-4 0  9991","PERIOD":"91.528","TLE_LINE2":"2 53637  53.2159 224.6683 0001656  84.9110 134.4510 15.73296397  1307","SEMIMAJOR_AXIS":"6727.620","REV_AT_EPOCH":"130","MEAN_MOTION_DOT":"-0.00011748","NORAD_CAT_ID":"53637"}];
